ORBCOMM FM37            
1 33064U 08031E   25134.53189208  .00001207  00000+0  18712-3 0  9990
2 33064  48.4386 143.6191 0005755 235.8402 267.3751 14.79660870909065
ORBCOMM FM40            
1 33065U 08031F   25134.42314946  .00002175  00000+0  29891-3 0  9993
2 33065  48.4394 128.7324 0006940 246.8509 233.2085 14.81877585909152
VESSELSAT 1             
1 37840U 11058C   25134.44580557  .00000385  00000+0  65426-4 0  9992
2 37840  19.9627 298.0583 0013623 175.0830 184.9709 14.11348053701536
ORBCOMM FM109           
1 40086U 14040A   25134.54176230  .00000393  00000+0  12109-3 0  9990
2 40086  47.0020 175.1895 0002103 217.7571 142.3168 14.58126708576156
ORBCOMM FM107           
1 40087U 14040B   25134.50341301  .00000457  00000+0  13470-3 0  9993
2 40087  47.0038 176.3480 0000685 190.8634 169.2237 14.58191838576222
ORBCOMM FM106           
1 40088U 14040C   25134.09836043  .00001015  00000+0  20125-3 0  9996
2 40088  47.0622   3.0904 0017432 268.3523  91.5372 14.69374868578468
ORBCOMM FM111           
1 40089U 14040D   25134.33733989  .00002399  00000+0  29314-3 0  9994
2 40089  47.0007 216.6695 0029832  28.0770 332.1729 14.86141266585198
ORBCOMM FM104           
1 40090U 14040E   25134.59205088  .00000484  00000+0  14533-3 0  9998
2 40090  47.0044 209.1336 0015550  49.4970 310.7267 14.56604506575726
